{
    "CCSDS_OMM_VERS": "3.0",
    "COMMENT": "GENERATED VIA SPACE-TRACK.ORG API",
    "CREATION_DATE": "2025-05-22T17:14:14",
    "ORIGINATOR": "18 SPCS",
    "OBJECT_NAME": "COSMOS 2569 (GLONASS)",
    "OBJECT_ID": "2023-114A",
    "CENTER_NAME": "EARTH",
    "REF_FRAME": "TEME",
    "TIME_SYSTEM": "UTC",
    "MEAN_ELEMENT_THEORY": "SGP4",
    "EPOCH": "2025-05-22T08:41:50.028576",
    "MEAN_MOTION": "2.13103645",
    "ECCENTRICITY": "0.00120270",
    "INCLINATION": "65.0829",
    "RA_OF_ASC_NODE": "85.8226",
    "ARG_OF_PERICENTER": "297.0514",
    "MEAN_ANOMALY": "62.8091",
    "EPHEMERIS_TYPE": "0",
    "CLASSIFICATION_TYPE": "U",
    "NORAD_CAT_ID": "57517",
    "ELEMENT_SET_NO": "999",
    "REV_AT_EPOCH": "1393",
    "BSTAR": "0.00000000000000",
    "MEAN_MOTION_DOT": "0.00000013",
    "MEAN_MOTION_DDOT": "0.0000000000000",
    "SEMIMAJOR_AXIS": "25507.893",
    "PERIOD": "675.728",
    "APOAPSIS": "19160.437",
    "PERIAPSIS": "19099.080",
    "OBJECT_TYPE": "PAYLOAD",
    "RCS_SIZE": "LARGE",
    "COUNTRY_CODE": "CIS",
    "LAUNCH_DATE": "2023-08-07",
    "SITE": "PKMTR",
    "DECAY_DATE": null,
    "FILE": "4736220",
    "GP_ID": "288152447",
    "TLE_LINE0": "0 COSMOS 2569 (GLONASS)",
    "TLE_LINE1": "1 57517U 23114A   25142.36238459  .00000013  00000-0  00000-0 0  9994",
    "TLE_LINE2": "2 57517  65.0829  85.8226 0012027 297.0514  62.8091  2.13103645 13935"
}